[{"OBJECT_NAME":"CENTISPACE-1 S11","OBJECT_ID":"2025-007F","EPOCH":"2026-03-09T23:01:31.862784","MEAN_MOTION":13.8370662,"ECCENTRICITY":0.00082397,"INCLINATION":54.9766,"RA_OF_ASC_NODE":278.225,"ARG_OF_PERICENTER":269.6912,"MEAN_ANOMALY":90.3101,"EPHEMERIS_TYPE":0,"CLASSIFICATION_TYPE":"U","NORAD_CAT_ID":62580,"ELEMENT_SET_NO":999,"REV_AT_EPOCH":6102,"BSTAR":4.4311105e-5,"MEAN_MOTION_DOT":-9.2e-7,"MEAN_MOTION_DDOT":0},{"OBJECT_NAME":"SL-8 R\/B","OBJECT_ID":"1983-023B","EPOCH":"2026-03-09T15:19:58.439712","MEAN_MOTION":13.77181161,"ECCENTRICITY":0.0036493,"INCLINATION":82.9537,"RA_OF_ASC_NODE":125.5663,"ARG_OF_PERICENTER":345.74,"MEAN_ANOMALY":14.2723,"EPHEMERIS_TYPE":0,"CLASSIFICATION_TYPE":"U","NORAD_CAT_ID":13950,"ELEMENT_SET_NO":999,"REV_AT_EPOCH":15725,"BSTAR":8.6048e-5,"MEAN_MOTION_DOT":1.01e-6,"MEAN_MOTION_DDOT":0}]
